[
    {
        "Altitude(m)": 716353.2508089668,
        "Argument of Periapsis(deg)": 0.0034170363559881197,
        "Eccentricity": 0.0,
        "Inclination(deg)": 45.0,
        "Latitude(deg)": -41.44897142791358,
        "Longitude(deg)": 1.2394828484732252,
        "Mean Anomaly(deg)": -111.08553500575582,
        "RAAN(deg)": 219.99677441756256,
        "Satellite Name": "Constellation 1 983",
        "Satellite Number": 983,
        "Semi-Major Axis(m)": 7083131.272910544,
        "Time(s)": 57
    },
    {
        "Altitude(m)": 716361.7331654795,
        "Argument of Periapsis(deg)": 0.003476984362233526,
        "Eccentricity": 0.0,
        "Inclination(deg)": 45.0,
        "Latitude(deg)": -41.469458536637624,
        "Longitude(deg)": 1.31125686034265,
        "Mean Anomaly(deg)": -111.02483386550595,
        "RAAN(deg)": 219.99671782839695,
        "Satellite Name": "Constellation 1 983",
        "Satellite Number": 983,
        "Semi-Major Axis(m)": 7083131.272910544,
        "Time(s)": 58
    },
    {
        "Altitude(m)": 716370.1947158003,
        "Argument of Periapsis(deg)": 0.003536932368478932,
        "Eccentricity": 0.0,
        "Inclination(deg)": 45.0,
        "Latitude(deg)": -41.489895477953134,
        "Longitude(deg)": 1.3830783196837206,
        "Mean Anomaly(deg)": -110.964132725256,
        "RAAN(deg)": 219.9966612392314,
        "Satellite Name": "Constellation 1 983",
        "Satellite Number": 983,
        "Semi-Major Axis(m)": 7083131.272910544,
        "Time(s)": 59
    },
    {
        "Altitude(m)": 716378.6354289205,
        "Argument of Periapsis(deg)": 0.003596880374724337,
        "Eccentricity": 0.0,
        "Inclination(deg)": 45.0,
        "Latitude(deg)": -41.51028218524782,
        "Longitude(deg)": 1.4549475100335096,
        "Mean Anomaly(deg)": -110.9034315850061,
        "RAAN(deg)": 219.99660465006582,
        "Satellite Name": "Constellation 1 983",
        "Satellite Number": 983,
        "Semi-Major Axis(m)": 7083131.272910544,
        "Time(s)": 60
    },
    {
        "Altitude(m)": 716387.055273896,
        "Argument of Periapsis(deg)": 0.0036568283809697427,
        "Eccentricity": 0.0,
        "Inclination(deg)": 45.0,
        "Latitude(deg)": -41.53061859196581,
        "Longitude(deg)": 1.5268642101145942,
        "Mean Anomaly(deg)": -110.84273044475616,
        "RAAN(deg)": 219.99654806090027,
        "Satellite Name": "Constellation 1 983",
        "Satellite Number": 983,
        "Semi-Major Axis(m)": 7083131.272910544,
        "Time(s)": 61
    },
    {
        "Altitude(m)": 716395.4542198685,
        "Argument of Periapsis(deg)": 0.003716776387215149,
        "Eccentricity": 0.0,
        "Inclination(deg)": 45.0,
        "Latitude(deg)": -41.55090463160697,
        "Longitude(deg)": 1.598828366221605,
        "Mean Anomaly(deg)": -110.7820293045063,
        "RAAN(deg)": 219.99649147173471,
        "Satellite Name": "Constellation 1 983",
        "Satellite Number": 983,
        "Semi-Major Axis(m)": 7083131.272910544,
        "Time(s)": 62
    },
    {
        "Altitude(m)": 716403.8322360418,
        "Argument of Periapsis(deg)": 0.003776724393460554,
        "Eccentricity": 0.0,
        "Inclination(deg)": 45.0,
        "Latitude(deg)": -41.571140237728166,
        "Longitude(deg)": 1.670839924124348,
        "Mean Anomaly(deg)": -110.72132816425632,
        "RAAN(deg)": 219.9964348825691,
        "Satellite Name": "Constellation 1 983",
        "Satellite Number": 983,
        "Semi-Major Axis(m)": 7083131.272910544,
        "Time(s)": 63
    },
    {
        "Altitude(m)": 716412.1892917078,
        "Argument of Periapsis(deg)": 0.003836672399705959,
        "Eccentricity": 0.0,
        "Inclination(deg)": 45.0,
        "Latitude(deg)": -41.59132534394389,
        "Longitude(deg)": 1.742898829065651,
        "Mean Anomaly(deg)": -110.66062702400647,
        "RAAN(deg)": 219.99637829340355,
        "Satellite Name": "Constellation 1 983",
        "Satellite Number": 983,
        "Semi-Major Axis(m)": 7083131.272910544,
        "Time(s)": 64
    },
    {
        "Altitude(m)": 716420.5253562296,
        "Argument of Periapsis(deg)": 0.003896620405951365,
        "Eccentricity": 0.0,
        "Inclination(deg)": 45.0,
        "Latitude(deg)": -41.61145988392733,
        "Longitude(deg)": 1.8150050257619121,
        "Mean Anomaly(deg)": -110.59992588375664,
        "RAAN(deg)": 219.996321704238,
        "Satellite Name": "Constellation 1 983",
        "Satellite Number": 983,
        "Semi-Major Axis(m)": 7083131.272910544,
        "Time(s)": 65
    },
    {
        "Altitude(m)": 716428.8403990373,
        "Argument of Periapsis(deg)": 0.003956568412196771,
        "Eccentricity": 0.0,
        "Inclination(deg)": 45.0,
        "Latitude(deg)": -41.63154379141088,
        "Longitude(deg)": 1.8871584584014152,
        "Mean Anomaly(deg)": -110.53922474350665,
        "RAAN(deg)": 219.99626511507242,
        "Satellite Name": "Constellation 1 983",
        "Satellite Number": 983,
        "Semi-Major Axis(m)": 7083131.272910544,
        "Time(s)": 66
    },
    {
        "Altitude(m)": 716437.1343896454,
        "Argument of Periapsis(deg)": 0.004016516418442176,
        "Eccentricity": 0.0,
        "Inclination(deg)": 45.0,
        "Latitude(deg)": -41.65157700018734,
        "Longitude(deg)": 1.9593589025462,
        "Mean Anomaly(deg)": -110.47852360325682,
        "RAAN(deg)": 219.99620852590687,
        "Satellite Name": "Constellation 1 983",
        "Satellite Number": 983,
        "Semi-Major Axis(m)": 7083131.272910544,
        "Time(s)": 67
    },
    {
        "Altitude(m)": 716445.4072976463,
        "Argument of Periapsis(deg)": 0.004076464424687581,
        "Eccentricity": 0.0,
        "Inclination(deg)": 45.0,
        "Latitude(deg)": -41.67155944410961,
        "Longitude(deg)": 2.0316066375205604,
        "Mean Anomaly(deg)": -110.41782246300694,
        "RAAN(deg)": 219.99615193674126,
        "Satellite Name": "Constellation 1 983",
        "Satellite Number": 983,
        "Semi-Major Axis(m)": 7083131.272910544,
        "Time(s)": 68
    },
    {
        "Altitude(m)": 716453.6590926953,
        "Argument of Periapsis(deg)": 0.004136412430932987,
        "Eccentricity": 0.0,
        "Inclination(deg)": 45.0,
        "Latitude(deg)": -41.69149105709319,
        "Longitude(deg)": 2.1039014378270475,
        "Mean Anomaly(deg)": -110.35712132275697,
        "RAAN(deg)": 219.9960953475757,
        "Satellite Name": "Constellation 1 983",
        "Satellite Number": 983,
        "Semi-Major Axis(m)": 7083131.272910544,
        "Time(s)": 69
    },
    {
        "Altitude(m)": 716461.8897445418,
        "Argument of Periapsis(deg)": 0.004196360437178394,
        "Eccentricity": 0.0,
        "Inclination(deg)": 45.0,
        "Latitude(deg)": -41.711371773115744,
        "Longitude(deg)": 2.176243245533941,
        "Mean Anomaly(deg)": -110.29642018250702,
        "RAAN(deg)": 219.99603875841015,
        "Satellite Name": "Constellation 1 983",
        "Satellite Number": 983,
        "Semi-Major Axis(m)": 7083131.272910544,
        "Time(s)": 70
    },
    {
        "Altitude(m)": 716470.099222993,
        "Argument of Periapsis(deg)": 0.004256308443423799,
        "Eccentricity": 0.0,
        "Inclination(deg)": 45.0,
        "Latitude(deg)": -41.73120152621838,
        "Longitude(deg)": 2.2486320021777053,
        "Mean Anomaly(deg)": -110.23571904225714,
        "RAAN(deg)": 219.99598216924457,
        "Satellite Name": "Constellation 1 983",
        "Satellite Number": 983,
        "Semi-Major Axis(m)": 7083131.272910544,
        "Time(s)": 71
    },
    {
        "Altitude(m)": 716478.2874979445,
        "Argument of Periapsis(deg)": 0.004316256449669204,
        "Eccentricity": 0.0,
        "Inclination(deg)": 45.0,
        "Latitude(deg)": -41.750980250506196,
        "Longitude(deg)": 2.3210676487621305,
        "Mean Anomaly(deg)": -110.1750179020073,
        "RAAN(deg)": 219.99592558007902,
        "Satellite Name": "Constellation 1 983",
        "Satellite Number": 983,
        "Semi-Major Axis(m)": 7083131.272910544,
        "Time(s)": 72
    },
    {
        "Altitude(m)": 716486.4545393615,
        "Argument of Periapsis(deg)": 0.00437620445591461,
        "Eccentricity": 0.0,
        "Inclination(deg)": 45.0,
        "Latitude(deg)": -41.770707880149466,
        "Longitude(deg)": 2.3935501257576894,
        "Mean Anomaly(deg)": -110.11431676175737,
        "RAAN(deg)": 219.99586899091346,
        "Satellite Name": "Constellation 1 983",
        "Satellite Number": 983,
        "Semi-Major Axis(m)": 7083131.272910544,
        "Time(s)": 73
    },
    {
        "Altitude(m)": 716494.6003172905,
        "Argument of Periapsis(deg)": 0.004436152462160016,
        "Eccentricity": 0.0,
        "Inclination(deg)": 45.0,
        "Latitude(deg)": -41.790384349384254,
        "Longitude(deg)": 2.4660792050032394,
        "Mean Anomaly(deg)": -110.05361562150759,
        "RAAN(deg)": 219.99581240174786,
        "Satellite Name": "Constellation 1 983",
        "Satellite Number": 983,
        "Semi-Major Axis(m)": 7083131.272910544,
        "Time(s)": 74
    },
    {
        "Altitude(m)": 716502.7248018517,
        "Argument of Periapsis(deg)": 0.0044961004684054215,
        "Eccentricity": 0.0,
        "Inclination(deg)": 45.0,
        "Latitude(deg)": -41.81000959251258,
        "Longitude(deg)": 2.53865516209443,
        "Mean Anomaly(deg)": -109.99291448125763,
        "RAAN(deg)": 219.9957558125823,
        "Satellite Name": "Constellation 1 983",
        "Satellite Number": 983,
        "Semi-Major Axis(m)": 7083131.272910544,
        "Time(s)": 75
    }
]